ONEWEB-0549             
1 56051U 23043F   24321.14731209  .00000089  00000+0  18368-3 0  9993
2 56051  87.9323 359.1307 0001700  82.3742 277.7585 13.21827658 81860
ONEWEB-0550             
1 56052U 23043G   24321.13468954  .00000113  00000+0  24165-3 0  9997
2 56052  87.9318 359.1355 0002014  97.2703 262.8660 13.21821005 81868
ONEWEB-0551             
1 56053U 23043H   24321.19559144 -.00000018  00000+0 -82134-4 0  9993
2 56053  87.9101  14.2957 0001828  90.7359 269.3981 13.15550347 80401
ONEWEB-0552             
1 56054U 23043J   24321.12837225 -.00000383  00000+0 -95929-3 0  9996
2 56054  87.9320 359.1462 0002103  89.8384 270.2991 13.21825647 81869
ONEWEB-0553             
1 56055U 23043K   24321.30103938  .00000136  00000+0  32233-3 0  9997
2 56055  87.9095 343.9074 0001625 101.7196 258.4118 13.16597670 82936
ONEWEB-0554             
1 56056U 23043L   24321.13639271  .00000142  00000+0  33749-3 0  9993
2 56056  87.9096 343.9653 0002489  95.0266 265.1149 13.16596153 82892
ONEWEB-0555             
1 56057U 23043M   24321.09838187  .00000033  00000+0  52436-4 0  9990
2 56057  87.9093 343.9415 0001817 117.1713 242.9603 13.16597098 82890
ONEWEB-0557             
1 56058U 23043N   24321.11264009  .00000025  00000+0  31087-4 0  9990
2 56058  87.9093 343.9632 0002302 118.8565 241.2797 13.16595937 82891
